{
    "links": {
        "self": "http://www.neowsapp.com/rest/v1/neo/3893863?api_key=iIulBulltgU6a56xZRHN4H3l9WmuAYTsLGpBGhQ2"
    },
    "id": "3893863",
    "neo_reference_id": "3893863",
    "name": "(2019 XR)",
    "designation": "2019 XR",
    "nasa_jpl_url": "http://ssd.jpl.nasa.gov/sbdb.cgi?sstr=3893863",
    "absolute_magnitude_h": 28.0,
    "estimated_diameter": {
        "kilometers": {
            "estimated_diameter_min": 0.0066765941,
            "estimated_diameter_max": 0.0149293183
        },
        "meters": {
            "estimated_diameter_min": 6.676594135,
            "estimated_diameter_max": 14.9293183439
        },
        "miles": {
            "estimated_diameter_min": 0.004148642,
            "estimated_diameter_max": 0.0092766455
        },
        "feet": {
            "estimated_diameter_min": 21.9048371017,
            "estimated_diameter_max": 48.9807047955
        }
    },
    "is_potentially_hazardous_asteroid": false,
    "close_approach_data": [
        {
            "close_approach_date": "2019-11-28",
            "close_approach_date_full": "2019-Nov-28 10:02",
            "epoch_date_close_approach": 1574935320000,
            "relative_velocity": {
                "kilometers_per_second": "7.8349994072",
                "kilometers_per_hour": "28205.997866082",
                "miles_per_hour": "17526.1101740664"
            },
            "miss_distance": {
                "astronomical": "0.0093322712",
                "lunar": "3.6302534968",
                "kilometers": "1396087.893782344",
                "miles": "867488.7912065872"
            },
            "orbiting_body": "Earth"
        }
    ],
    "orbital_data": {
        "orbit_id": "1",
        "orbit_determination_date": "2019-12-03 19:12:48",
        "first_observation_date": "2019-12-02",
        "last_observation_date": "2019-12-03",
        "data_arc_in_days": 1,
        "observations_used": 13,
        "orbit_uncertainty": "8",
        "minimum_orbit_intersection": ".00706156",
        "jupiter_tisserand_invariant": "3.258",
        "epoch_osculation": "2458820.5",
        "eccentricity": ".5881429332979122",
        "semi_major_axis": "2.410427679058471",
        "inclination": "2.567989291444873",
        "ascending_node_longitude": "66.53681009728872",
        "orbital_period": "1366.908944756218",
        "perihelion_distance": ".9927516733945433",
        "perihelion_argument": "351.7529025519448",
        "aphelion_distance": "3.828103684722399",
        "perihelion_time": "2458810.203922666323",
        "mean_anomaly": "2.711656730569403",
        "mean_motion": ".2633679451590715",
        "equinox": "J2000",
        "orbit_class": {
            "orbit_class_type": "APO",
            "orbit_class_description": "Near-Earth asteroid orbits which cross the Earth’s orbit similar to that of 1862 Apollo",
            "orbit_class_range": "a (semi-major axis) > 1.0 AU; q (perihelion) < 1.017 AU"
        }
    },
    "is_sentry_object": false
}